*******************************************************************************
 Revised: Sep 29, 2017               Erinome / (Jupiter)                    525

 Recently discovered irregular Jovian satellite.
*******************************************************************************
 
 
*******************************************************************************
Ephemeris / WWW_USER Sun Nov 12 11:12:46 2017 Pasadena, USA      / Horizons    
*******************************************************************************
Target body name: Erinome (525)                   {source: jup341}
Center body name: Solar System Barycenter (0)     {source: DE431mx}
Center-site name: BODY CENTER
*******************************************************************************
Start time      : A.D. 2017-Jul-10 00:00:00.0000 TDB
Stop  time      : A.D. 2020-Aug-13 00:00:00.0000 TDB
Step-size       : 1440 minutes
*******************************************************************************
Center geodetic : 0.00000000,0.00000000,0.0000000 {E-lon(deg),Lat(deg),Alt(km)}
Center cylindric: 0.00000000,0.00000000,0.0000000 {E-lon(deg),Dxy(km),Dz(km)}
Center radii    : (undefined)                                                  
Output units    : KM-S                                                         
Output type     : GEOMETRIC cartesian states
Output format   : 3 (position, velocity, LT, range, range-rate)
Reference frame : ICRF/J2000.0                                                 
Coordinate systm: Ecliptic and Mean Equinox of Reference Epoch                 
*******************************************************************************
            JDTDB,            Calendar Date (TDB),                      X,                      Y,                      Z,                     VX,                     VY,                     VZ,                     LT,                     RG,                     RR,
**************************************************************************************************************************************************************************************************************************************************************************
$$SOE
2458524.500000000, A.D. 2019-Feb-10 00:00:00.0000, -3.051636248201787E+08, -7.411508083100766E+08,  5.287359338690311E+06,  1.210334810974209E+01, -2.157115378401334E+00, -6.705668339260947E-01,  2.673630803343014E+03,  8.015343503187168E+08, -2.617853248942271E+00,
2458525.500000000, A.D. 2019-Feb-11 00:00:00.0000, -3.041170270258938E+08, -7.413366067108105E+08,  5.229503361484140E+06,  1.212344056583407E+01, -2.143780961755442E+00, -6.686901078293223E-01,  2.672875712135075E+03,  8.013079796694745E+08, -2.622185687606586E+00,
2458526.500000000, A.D. 2019-Feb-12 00:00:00.0000, -3.030686963809122E+08, -7.415212549367465E+08,  5.171809995891362E+06,  1.214346043447864E+01, -2.130490867643914E+00, -6.668026930370072E-01,  2.672119391648075E+03,  8.010812404916410E+08, -2.626384107017576E+00,
2458527.500000000, A.D. 2019-Feb-13 00:00:00.0000, -3.020186391464865E+08, -7.417047567930567E+08,  5.114280161071986E+06,  1.216340795352973E+01, -2.117244534662506E+00, -6.649046897740174E-01,  2.671361880417034E+03,  8.008541443377246E+08, -2.630449125616144E+00,
2458528.500000000, A.D. 2019-Feb-14 00:00:00.0000, -3.009668615633218E+08, -7.418871160366412E+08,  5.056914767648220E+06,  1.218328336243543E+01, -2.104041407223380E+00, -6.629961950266624E-01,  2.670603216799247E+03,  8.006267027069530E+08, -2.634381358528982E+00,
2458529.500000000, A.D. 2019-Feb-15 00:00:00.0000, -2.999133698511625E+08, -7.420683363769367E+08,  4.999714718060553E+06,  1.220308690653150E+01, -2.090880944128785E+00, -6.610773012575141E-01,  2.669843438975849E+03,  8.003989270457430E+08, -2.638181411186185E+00,
2458530.500000000, A.D. 2019-Feb-16 00:00:00.0000, -2.988581702085527E+08, -7.422484214775016E+08,  4.942680906898201E+06,  1.222281882944554E+01, -2.077762624301442E+00, -6.591480982062965E-01,  2.669082584956017E+03,  8.001708287489581E+08, -2.641849871096812E+00,
2458531.500000000, A.D. 2019-Feb-17 00:00:00.0000, -2.978012688133636E+08, -7.424273749574772E+08,  4.885814221030533E+06,  1.224247936574840E+01, -2.064685938636078E+00, -6.572086749715625E-01,  2.668320692581744E+03,  7.999424191613432E+08, -2.645387312648117E+00,
2458532.500000000, A.D. 2019-Feb-18 00:00:00.0000, -2.967426718234692E+08, -7.426052003922385E+08,  4.829115539679736E+06,  1.226206874536141E+01, -2.051650383329194E+00, -6.552591190707910E-01,  2.667557799530304E+03,  7.997137095782611E+08, -2.648794304959624E+00,
2458533.500000000, A.D. 2019-Feb-19 00:00:00.0000, -2.956823853767698E+08, -7.427819013141418E+08,  4.772585734659016E+06,  1.228158720109534E+01, -2.038655468535652E+00, -6.532995143486290E-01,  2.666793943316202E+03,  7.994847112462769E+08, -2.652071406627296E+00,
2458534.500000000, A.D. 2019-Feb-20 00:00:00.0000, -2.946204155911406E+08, -7.429574812140484E+08,  4.716225670643657E+06,  1.230103496089753E+01, -2.025700721789800E+00, -6.513299429683806E-01,  2.666029161295436E+03,  7.992554353644372E+08, -2.655219159636713E+00,
2458535.500000000, A.D. 2019-Feb-21 00:00:00.0000, -2.935567685654917E+08, -7.431319435419862E+08,  4.660036205127060E+06,  1.232041223615861E+01, -2.012785666535652E+00, -6.493504890207895E-01,  2.665263490668466E+03,  7.990258930851594E+08, -2.658238105054319E+00,
2458536.500000000, A.D. 2019-Feb-22 00:00:00.0000, -2.924914503801872E+08, -7.433052917068899E+08,  4.604018188519478E+06,  1.233971925512854E+01, -1.999909839776818E+00, -6.473612294052644E-01,  2.664496968479522E+03,  7.987960955140244E+08, -2.661128778904359E+00,
2458537.500000000, A.D. 2019-Feb-23 00:00:00.0000, -2.914244670943450E+08, -7.434775290802627E+08,  4.548172465158284E+06,  1.235895625195878E+01, -1.987072808926097E+00, -6.453622361228850E-01,  2.663729631624297E+03,  7.985660537120826E+08, -2.663891692303047E+00,
2458538.500000000, A.D. 2019-Feb-24 00:00:00.0000, -2.903558247505904E+08, -7.436486589933057E+08,  4.492499872218132E+06,  1.237812343823981E+01, -1.974274123987640E+00, -6.433535849754005E-01,  2.662961516846445E+03,  7.983357786948042E+08, -2.666527365671590E+00,
2458539.500000000, A.D. 2019-Feb-25 00:00:00.0000, -2.892855293696218E+08, -7.438186847413287E+08,  4.437001241468251E+06,  1.239722101796633E+01, -1.961513366349677E+00, -6.413353507631848E-01,  2.662192660744311E+03,  7.981052814340971E+08, -2.669036288738392E+00,
2458540.500000000, A.D. 2019-Feb-26 00:00:00.0000, -2.882135869565538E+08, -7.439876095833162E+08,  4.381677397767603E+06,  1.241624922297792E+01, -1.948790120590765E+00, -6.393075981083587E-01,  2.661423099776894E+03,  7.978745728600943E+08, -2.671418959643527E+00,
2458541.500000000, A.D. 2019-Feb-27 00:00:00.0000, -2.871400034958989E+08, -7.441554367430999E+08,  4.326529160683483E+06,  1.243520826100126E+01, -1.936103990246128E+00, -6.372703951192680E-01,  2.660652870261069E+03,  7.976436638603210E+08, -2.673675851345630E+00,
2458542.500000000, A.D. 2019-Feb-28 00:00:00.0000, -2.860647849556038E+08, -7.443221694103034E+08,  4.271557343612671E+06,  1.245409832233310E+01, -1.923454577984699E+00, -6.352238126059657E-01,  2.659882008379018E+03,  7.974125652819223E+08, -2.675807432672718E+00,
2458543.500000000, A.D. 2019-Mar-01 00:00:00.0000, -2.849879372863574E+08, -7.444878107403992E+08,  4.216762754160792E+06,  1.247291961401121E+01, -1.910841493528338E+00, -6.331679142526891E-01,  2.659110550177192E+03,  7.971812879313527E+08, -2.677814173190367E+00,
2458544.500000000, A.D. 2019-Mar-02 00:00:00.0000, -2.839094664210262E+08, -7.446523638558234E+08,  4.162146194539368E+06,  1.249167233859551E+01, -1.898264362056640E+00, -6.311027620932124E-01,  2.658338531568741E+03,  7.969498425751034E+08, -2.679696527685247E+00,
2458545.500000000, A.D. 2019-Mar-03 00:00:00.0000, -2.828293782753676E+08, -7.448158318470640E+08,  4.107708461604148E+06,  1.251035669112499E+01, -1.885722817629050E+00, -6.290284176915779E-01,  2.657565988337390E+03,  7.967182399408654E+08, -2.681454941236318E+00,
2458546.500000000, A.D. 2019-Mar-04 00:00:00.0000, -2.817476787482335E+08, -7.449782177732668E+08,  4.053450347012639E+06,  1.252897286892536E+01, -1.873216501351744E+00, -6.269449394866210E-01,  2.656792956139202E+03,  7.964864907180575E+08, -2.683089854411373E+00,
2458547.500000000, A.D. 2019-Mar-05 00:00:00.0000, -2.806643737213447E+08, -7.451395246631004E+08,  3.999372637515366E+06,  1.254752106972096E+01, -1.860745067622555E+00, -6.248523830029958E-01,  2.656019470504652E+03,  7.962546055584480E+08, -2.684601696721101E+00,
2458548.500000000, A.D. 2019-Mar-06 00:00:00.0000, -2.795794690596818E+08, -7.452997555160084E+08,  3.945476115092158E+06,  1.256600148210222E+01, -1.848308184615706E+00, -6.227508035463730E-01,  2.655245566842636E+03,  7.960225950773573E+08, -2.685990882796808E+00,
2458549.500000000, A.D. 2019-Mar-07 00:00:00.0000, -2.784929706123791E+08, -7.454589133030620E+08,  3.891761556920469E+06,  1.258441428542517E+01, -1.835905525940859E+00, -6.206402567275526E-01,  2.654471280443830E+03,  7.957904698546631E+08, -2.687257820205265E+00,
2458550.500000000, A.D. 2019-Mar-08 00:00:00.0000, -2.774048842131490E+08, -7.456170009672201E+08,  3.838229735443652E+06,  1.260275965868098E+01, -1.823536768027736E+00, -6.185207961045378E-01,  2.653696646481621E+03,  7.955582404350821E+08, -2.688402915032554E+00,
2458551.500000000, A.D. 2019-Mar-09 00:00:00.0000, -2.763152156801542E+08, -7.457740214239372E+08,  3.784881418613553E+06,  1.262103778178716E+01, -1.811201599568467E+00, -6.163924722811428E-01,  2.652921700013495E+03,  7.953259173285843E+08, -2.689426563466882E+00,
2458552.500000000, A.D. 2019-Mar-10 00:00:00.0000, -2.752239708162957E+08, -7.459299775624181E+08,  3.731717370050371E+06,  1.263924882687275E+01, -1.798899722188748E+00, -6.142553354050037E-01,  2.652146475984927E+03,  7.950935110115594E+08, -2.690329148128980E+00,
